start=new Date('2021-10-25T00:00:00.000Z').valueOf();
sats=[{"MEAN_MOTION":"15.06398499","EPOCH":"2021-10-24T20:37:21.911232","REV_AT_EPOCH":"7552","LAUNCH_DATE":"2020-06-13","APOAPSIS":"548.416","BSTAR":"0.00013462000000","OBJECT_ID":"2020-038M","MEAN_ELEMENT_THEORY":"SGP4","TLE_LINE2":"2 45741  53.0546 205.0771 0001729  74.2848 285.8331 15.06398499 75523","CENTER_NAME":"EARTH","EPHEMERIS_TYPE":"0","TIME_SYSTEM":"UTC","COUNTRY_CODE":"US","GP_ID":"188103810","CLASSIFICATION_TYPE":"U","MEAN_ANOMALY":"285.8331","ARG_OF_PERICENTER":"74.2848","MEAN_MOTION_DOT":"0.00001724","RA_OF_ASC_NODE":"205.0771","SEMIMAJOR_AXIS":"6925.353","ELEMENT_SET_NO":"999","ECCENTRICITY":"0.00017290","SITE":"AFETR","MEAN_MOTION_DDOT":"0.0000000000000","REF_FRAME":"TEME","DECAY_DATE":null,"FILE":"3182768","OBJECT_TYPE":"PAYLOAD","NORAD_CAT_ID":"45741","PERIOD":"95.592","PERIAPSIS":"546.021","RCS_SIZE":"LARGE","TLE_LINE1":"1 45741U 20038M   21297.85928138  .00001724  00000-0  13462-3 0  9992","INCLINATION":"53.0546","OBJECT_NAME":"STARLINK-1480"},{"TLE_LINE1":"1 45742U 20038N   21297.78556303  .00001544  00000-0  12254-3 0  9994","INCLINATION":"53.0539","OBJECT_NAME":"STARLINK-1481","PERIOD":"95.592","NORAD_CAT_ID":"45742","PERIAPSIS":"546.044","RCS_SIZE":"LARGE","OBJECT_TYPE":"PAYLOAD","ELEMENT_SET_NO":"999","SEMIMAJOR_AXIS":"6925.358","RA_OF_ASC_NODE":"205.4009","ECCENTRICITY":"0.00017020","MEAN_MOTION_DDOT":"0.0000000000000","SITE":"AFETR","FILE":"3182768","REF_FRAME":"TEME","DECAY_DATE":null,"TLE_LINE2":"2 45742  53.0539 205.4009 0001702  79.2916 280.8265 15.06396879 75493","OBJECT_ID":"2020-038N","MEAN_ELEMENT_THEORY":"SGP4","EPHEMERIS_TYPE":"0","CENTER_NAME":"EARTH","TIME_SYSTEM":"UTC","MEAN_MOTION_DOT":"0.00001544","ARG_OF_PERICENTER":"79.2916","COUNTRY_CODE":"US","GP_ID":"188104061","CLASSIFICATION_TYPE":"U","MEAN_ANOMALY":"280.8265","LAUNCH_DATE":"2020-06-13","APOAPSIS":"548.402","BSTAR":"0.00012254000000","REV_AT_EPOCH":"7549","MEAN_MOTION":"15.06396879","EPOCH":"2021-10-24T18:51:12.645792"},{"MEAN_MOTION":"15.06406676","EPOCH":"2021-10-24T18:03:27.042048","REV_AT_EPOCH":"7549","LAUNCH_DATE":"2020-06-13","APOAPSIS":"548.436","BSTAR":"0.00007498400000","TLE_LINE2":"2 45743  53.0546 205.5549 0001795  72.4175 287.7010 15.06406676 75497","OBJECT_ID":"2020-038P","MEAN_ELEMENT_THEORY":"SGP4","EPHEMERIS_TYPE":"0","CENTER_NAME":"EARTH","TIME_SYSTEM":"UTC","MEAN_MOTION_DOT":"0.00000836","ARG_OF_PERICENTER":"72.4175","COUNTRY_CODE":"US","GP_ID":"188102809","CLASSIFICATION_TYPE":"U","MEAN_ANOMALY":"287.7010","SEMIMAJOR_AXIS":"6925.328","RA_OF_ASC_NODE":"205.5549","ELEMENT_SET_NO":"999","ECCENTRICITY":"0.00017950","MEAN_MOTION_DDOT":"0.0000000000000","SITE":"AFETR","FILE":"3182768","REF_FRAME":"TEME","DECAY_DATE":null,"OBJECT_TYPE":"PAYLOAD","PERIOD":"95.592","NORAD_CAT_ID":"45743","PERIAPSIS":"545.950","RCS_SIZE":"LARGE","TLE_LINE1":"1 45743U 20038P   21297.75239632  .00000836  00000-0  74984-4 0  9997","INCLINATION":"53.0546","OBJECT_NAME":"STARLINK-1483"},{"TLE_LINE1":"1 45744U 20038Q   21297.77451794 -.00000112  00000-0  11368-4 0  9990","INCLINATION":"53.0550","OBJECT_NAME":"STARLINK-1500","PERIOD":"95.592","NORAD_CAT_ID":"45744","PERIAPSIS":"546.027","RCS_SIZE":"LARGE","OBJECT_TYPE":"PAYLOAD","SEMIMAJOR_AXIS":"6925.351","ELEMENT_SET_NO":"999","RA_OF_ASC_NODE":"205.4608","ECCENTRICITY":"0.00017180","MEAN_MOTION_DDOT":"0.0000000000000","SITE":"AFETR","FILE":"3182768","REF_FRAME":"TEME","DECAY_DATE":null,"TLE_LINE2":"2 45744  53.0550 205.4608 0001718  78.9010 281.2172 15.06399076 75507","OBJECT_ID":"2020-038Q","MEAN_ELEMENT_THEORY":"SGP4","EPHEMERIS_TYPE":"0","CENTER_NAME":"EARTH","TIME_SYSTEM":"UTC","MEAN_MOTION_DOT":"-0.00000112","ARG_OF_PERICENTER":"78.9010","GP_ID":"188103059","CLASSIFICATION_TYPE":"U","COUNTRY_CODE":"US","MEAN_ANOMALY":"281.2172","LAUNCH_DATE":"2020-06-13","APOAPSIS":"548.406","BSTAR":"0.00001136800000","REV_AT_EPOCH":"7550","MEAN_MOTION":"15.06399076","EPOCH":"2021-10-24T18:35:18.350016"},{"TIME_SYSTEM":"UTC","MEAN_MOTION_DOT":"-0.00000266","ARG_OF_PERICENTER":"78.2144","COUNTRY_CODE":"US","GP_ID":"188104311","CLASSIFICATION_TYPE":"U","MEAN_ANOMALY":"281.9044","TLE_LINE2":"2 45745  53.0548 205.5063 0001773  78.2144 281.9044 15.06401218 75498","MEAN_ELEMENT_THEORY":"SGP4","OBJECT_ID":"2020-038R","EPHEMERIS_TYPE":"0","CENTER_NAME":"EARTH","APOAPSIS":"548.438","BSTAR":"0.00000103630000","LAUNCH_DATE":"2020-06-13","REV_AT_EPOCH":"7549","EPOCH":"2021-10-24T18:19:22.000512","MEAN_MOTION":"15.06401218","INCLINATION":"53.0548","OBJECT_NAME":"STARLINK-1503","TLE_LINE1":"1 45745U 20038R   21297.76344908 -.00000266  00000-0  10363-5 0  9993","RCS_SIZE":"LARGE","PERIOD":"95.592","NORAD_CAT_ID":"45745","PERIAPSIS":"545.982","OBJECT_TYPE":"PAYLOAD","MEAN_MOTION_DDOT":"0.0000000000000","SITE":"AFETR","FILE":"3182768","REF_FRAME":"TEME","DECAY_DATE":null,"SEMIMAJOR_AXIS":"6925.345","RA_OF_ASC_NODE":"205.5063","ELEMENT_SET_NO":"999","ECCENTRICITY":"0.00017730"},{"EPHEMERIS_TYPE":"0","CENTER_NAME":"EARTH","TLE_LINE2":"2 45746  53.0532 205.4408 0001712  69.8509 290.2664 15.06384179 75495","OBJECT_ID":"2020-038S","MEAN_ELEMENT_THEORY":"SGP4","MEAN_MOTION_DOT":"-0.00000012","ARG_OF_PERICENTER":"69.8509","GP_ID":"188104562","COUNTRY_CODE":"US","MEAN_ANOMALY":"290.2664","CLASSIFICATION_TYPE":"U","TIME_SYSTEM":"UTC","LAUNCH_DATE":"2020-06-13","BSTAR":"0.00001811400000","APOAPSIS":"548.448","REV_AT_EPOCH":"7549","MEAN_MOTION":"15.06384179","EPOCH":"2021-10-24T18:40:36.849792","TLE_LINE1":"1 45746U 20038S   21297.77820428 -.00000012  00000-0  18114-4 0  9991","OBJECT_NAME":"STARLINK-1504","INCLINATION":"53.0532","PERIAPSIS":"546.076","PERIOD":"95.593","NORAD_CAT_ID":"45746","RCS_SIZE":"LARGE","OBJECT_TYPE":"PAYLOAD","ECCENTRICITY":"0.00017120","RA_OF_ASC_NODE":"205.4408","SEMIMAJOR_AXIS":"6925.397","ELEMENT_SET_NO":"999","FILE":"3182768","DECAY_DATE":null,"REF_FRAME":"TEME","MEAN_MOTION_DDOT":"0.0000000000000","SITE":"AFETR"},{"MEAN_MOTION":"15.06411359","EPOCH":"2021-10-24T18:45:54.594432","REV_AT_EPOCH":"7550","LAUNCH_DATE":"2020-06-13","APOAPSIS":"548.437","BSTAR":"0.00015902000000","TLE_LINE2":"2 45747  53.0542 205.4189 0001817  70.3368 289.7817 15.06411359 75505","OBJECT_ID":"2020-038T","MEAN_ELEMENT_THEORY":"SGP4","EPHEMERIS_TYPE":"0","CENTER_NAME":"EARTH","TIME_SYSTEM":"UTC","ARG_OF_PERICENTER":"70.3368","MEAN_MOTION_DOT":"0.00002088","GP_ID":"188103310","CLASSIFICATION_TYPE":"U","COUNTRY_CODE":"US","MEAN_ANOMALY":"289.7817","RA_OF_ASC_NODE":"205.4189","SEMIMAJOR_AXIS":"6925.314","ELEMENT_SET_NO":"999","ECCENTRICITY":"0.00018170","MEAN_MOTION_DDOT":"0.0000000000000","SITE":"AFETR","FILE":"3182768","DECAY_DATE":null,"REF_FRAME":"TEME","OBJECT_TYPE":"PAYLOAD","PERIOD":"95.591","NORAD_CAT_ID":"45747","PERIAPSIS":"545.920","RCS_SIZE":"LARGE","TLE_LINE1":"1 45747U 20038T   21297.78188188  .00002088  00000-0  15902-3 0  9998","INCLINATION":"53.0542","OBJECT_NAME":"STARLINK-1506"},{"PERIAPSIS":"546.056","NORAD_CAT_ID":"45748","PERIOD":"95.592","RCS_SIZE":"LARGE","TLE_LINE1":"1 45748U 20038U   21297.76713481  .00001562  00000-0  12379-3 0  9998","OBJECT_NAME":"STARLINK-1507","INCLINATION":"53.0534","ECCENTRICITY":"0.00016950","ELEMENT_SET_NO":"999","SEMIMAJOR_AXIS":"6925.364","RA_OF_ASC_NODE":"205.4918","REF_FRAME":"TEME","DECAY_DATE":null,"FILE":"3182768","SITE":"AFETR","MEAN_MOTION_DDOT":"0.0000000000000","OBJECT_TYPE":"PAYLOAD","LAUNCH_DATE":"2020-06-13","BSTAR":"0.00012379000000","APOAPSIS":"548.403","CENTER_NAME":"EARTH","EPHEMERIS_TYPE":"0","OBJECT_ID":"2020-038U","MEAN_ELEMENT_THEORY":"SGP4","TLE_LINE2":"2 45748  53.0534 205.4918 0001695  80.8945 279.2235 15.06394824 75491","GP_ID":"188103560","COUNTRY_CODE":"US","CLASSIFICATION_TYPE":"U","MEAN_ANOMALY":"279.2235","ARG_OF_PERICENTER":"80.8945","MEAN_MOTION_DOT":"0.00001562","TIME_SYSTEM":"UTC","MEAN_MOTION":"15.06394824","EPOCH":"2021-10-24T18:24:40.447584","REV_AT_EPOCH":"7549"},{"RCS_SIZE":"LARGE","PERIOD":"95.592","NORAD_CAT_ID":"45750","PERIAPSIS":"546.024","INCLINATION":"53.0558","OBJECT_NAME":"STARLINK-1391","TLE_LINE1":"1 45750U 20038W   21297.86482050  .00001791  00000-0  13908-3 0  9990","MEAN_MOTION_DDOT":"0.0000000000000","SITE":"AFETR","FILE":"3182768","DECAY_DATE":null,"REF_FRAME":"TEME","ELEMENT_SET_NO":"999","SEMIMAJOR_AXIS":"6925.345","RA_OF_ASC_NODE":"185.0531","ECCENTRICITY":"0.00017130","OBJECT_TYPE":"PAYLOAD","APOAPSIS":"548.397","BSTAR":"0.00013908000000","LAUNCH_DATE":"2020-06-13","TIME_SYSTEM":"UTC","MEAN_MOTION_DOT":"0.00001791","ARG_OF_PERICENTER":"76.1317","GP_ID":"188103811","COUNTRY_CODE":"US","CLASSIFICATION_TYPE":"U","MEAN_ANOMALY":"283.9863","TLE_LINE2":"2 45750  53.0558 185.0531 0001713  76.1317 283.9863 15.06401089 75802","MEAN_ELEMENT_THEORY":"SGP4","OBJECT_ID":"2020-038W","EPHEMERIS_TYPE":"0","CENTER_NAME":"EARTH","EPOCH":"2021-10-24T20:45:20.491200","MEAN_MOTION":"15.06401089","REV_AT_EPOCH":"7580"},{"FILE":"3182768","DECAY_DATE":null,"REF_FRAME":"TEME","MEAN_MOTION_DDOT":"0.0000000000000","SITE":"AFETR","ECCENTRICITY":"0.00017540","SEMIMAJOR_AXIS":"6925.379","RA_OF_ASC_NODE":"185.0660","ELEMENT_SET_NO":"999","OBJECT_TYPE":"PAYLOAD","RCS_SIZE":"LARGE","PERIAPSIS":"546.030","PERIOD":"95.593","NORAD_CAT_ID":"45751","OBJECT_NAME":"STARLINK-1464","INCLINATION":"53.0529","TLE_LINE1":"1 45751U 20038X   21297.86113448  .00001521  00000-0  12100-3 0  9997","EPOCH":"2021-10-24T20:40:02.019072","MEAN_MOTION":"15.06389943","REV_AT_EPOCH":"7580","BSTAR":"0.00012100000000","APOAPSIS":"548.459","LAUNCH_DATE":"2020-06-13","MEAN_MOTION_DOT":"0.00001521","ARG_OF_PERICENTER":"81.8899","COUNTRY_CODE":"US","GP_ID":"188104062","MEAN_ANOMALY":"278.2289","CLASSIFICATION_TYPE":"U","TIME_SYSTEM":"UTC","EPHEMERIS_TYPE":"0","CENTER_NAME":"EARTH","TLE_LINE2":"2 45751  53.0529 185.0660 0001754  81.8899 278.2289 15.06389943 75800","MEAN_ELEMENT_THEORY":"SGP4","OBJECT_ID":"2020-038X"}];
